TELEOS-2                
1 56310U 23057C   26067.64596106  .00000863  00000+0  15043-4 0  9993
2 56310   9.9874 216.2411 0000803 295.2771  64.7359 14.96380118157711
STARLINK-34033          
1 64045U 25102Z   26068.56165852  .00003267  00000+0  28142-3 0  9996
2 64045  70.0010 114.7526 0003568 269.7941  90.2809 14.98332780 45861
